[
    {
        "Altitude(m)": 556178.571404469,
        "Argument of Periapsis(deg)": 0.026491964442854003,
        "Eccentricity": 0.0,
        "Inclination(deg)": 53.0,
        "Latitude(deg)": 36.30033889867568,
        "Longitude(deg)": 150.218415067625,
        "Mean Anomaly(deg)": 47.639171470310345,
        "RAAN(deg)": 219.96057347411207,
        "Satellite Name": "Starlink Shell 1 968",
        "Satellite Number": 968,
        "Semi-Major Axis(m)": 6931778.249405717,
        "Time(s)": 760
    },
    {
        "Altitude(m)": 556261.5544761223,
        "Argument of Periapsis(deg)": 0.02684054292236524,
        "Eccentricity": 0.0,
        "Inclination(deg)": 53.0,
        "Latitude(deg)": 36.718267958212444,
        "Longitude(deg)": 150.75883401129246,
        "Mean Anomaly(deg)": 48.266002673867064,
        "RAAN(deg)": 219.9600547040346,
        "Satellite Name": "Starlink Shell 1 968",
        "Satellite Number": 968,
        "Semi-Major Axis(m)": 6931778.249405717,
        "Time(s)": 770
    },
    {
        "Altitude(m)": 556344.7498902867,
        "Argument of Periapsis(deg)": 0.027189121401876473,
        "Eccentricity": 0.0,
        "Inclination(deg)": 53.0,
        "Latitude(deg)": 37.13329407539497,
        "Longitude(deg)": 151.30556079118324,
        "Mean Anomaly(deg)": 48.89283387742379,
        "RAAN(deg)": 219.9595359339571,
        "Satellite Name": "Starlink Shell 1 968",
        "Satellite Number": 968,
        "Semi-Major Axis(m)": 6931778.249405717,
        "Time(s)": 780
    },
    {
        "Altitude(m)": 556428.1021513046,
        "Argument of Periapsis(deg)": 0.02753769988138771,
        "Eccentricity": 0.0,
        "Inclination(deg)": 53.0,
        "Latitude(deg)": 37.54534243104821,
        "Longitude(deg)": 151.8587159240472,
        "Mean Anomaly(deg)": 49.51966508098054,
        "RAAN(deg)": 219.95901716387962,
        "Satellite Name": "Starlink Shell 1 968",
        "Satellite Number": 968,
        "Semi-Major Axis(m)": 6931778.249405717,
        "Time(s)": 790
    },
    {
        "Altitude(m)": 556511.555893613,
        "Argument of Periapsis(deg)": 0.02788627836089895,
        "Eccentricity": 0.0,
        "Inclination(deg)": 53.0,
        "Latitude(deg)": 37.95433651713592,
        "Longitude(deg)": 152.41841962779233,
        "Mean Anomaly(deg)": 50.14649628453721,
        "RAAN(deg)": 219.95849839380216,
        "Satellite Name": "Starlink Shell 1 968",
        "Satellite Number": 968,
        "Semi-Major Axis(m)": 6931778.249405717,
        "Time(s)": 800
    },
    {
        "Altitude(m)": 556595.0559101002,
        "Argument of Periapsis(deg)": 0.02823485684041019,
        "Eccentricity": 0.0,
        "Inclination(deg)": 53.0,
        "Latitude(deg)": 38.36019811005918,
        "Longitude(deg)": 152.98479218038426,
        "Mean Anomaly(deg)": 50.773327488093926,
        "RAAN(deg)": 219.95797962372473,
        "Satellite Name": "Starlink Shell 1 968",
        "Satellite Number": 968,
        "Semi-Major Axis(m)": 6931778.249405717,
        "Time(s)": 810
    },
    {
        "Altitude(m)": 556678.5471803258,
        "Argument of Periapsis(deg)": 0.028583435319921423,
        "Eccentricity": 0.0,
        "Inclination(deg)": 53.0,
        "Latitude(deg)": 38.762847245437975,
        "Longitude(deg)": 153.55795426621947,
        "Mean Anomaly(deg)": 51.400158691650624,
        "RAAN(deg)": 219.9574608536472,
        "Satellite Name": "Starlink Shell 1 968",
        "Satellite Number": 968,
        "Semi-Major Axis(m)": 6931778.249405717,
        "Time(s)": 820
    },
    {
        "Altitude(m)": 556761.9748986564,
        "Argument of Periapsis(deg)": 0.028932013799432665,
        "Eccentricity": 0.0,
        "Inclination(deg)": 53.0,
        "Latitude(deg)": 39.16220219458705,
        "Longitude(deg)": 154.13802579648194,
        "Mean Anomaly(deg)": 52.026989895207336,
        "RAAN(deg)": 219.95694208356977,
        "Satellite Name": "Starlink Shell 1 968",
        "Satellite Number": 968,
        "Semi-Major Axis(m)": 6931778.249405717,
        "Time(s)": 830
    },
    {
        "Altitude(m)": 556845.2845021943,
        "Argument of Periapsis(deg)": 0.029280592278943897,
        "Eccentricity": 0.0,
        "Inclination(deg)": 53.0,
        "Latitude(deg)": 39.55817944290441,
        "Longitude(deg)": 154.72512622861748,
        "Mean Anomaly(deg)": 52.653821098764055,
        "RAAN(deg)": 219.9564233134923,
        "Satellite Name": "Starlink Shell 1 968",
        "Satellite Number": 968,
        "Semi-Major Axis(m)": 6931778.249405717,
        "Time(s)": 840
    },
    {
        "Altitude(m)": 556928.4216985706,
        "Argument of Periapsis(deg)": 0.029629170758455132,
        "Eccentricity": 0.0,
        "Inclination(deg)": 53.0,
        "Latitude(deg)": 39.95069367041285,
        "Longitude(deg)": 155.3193748714398,
        "Mean Anomaly(deg)": 53.28065230232075,
        "RAAN(deg)": 219.95590454341482,
        "Satellite Name": "Starlink Shell 1 968",
        "Satellite Number": 968,
        "Semi-Major Axis(m)": 6931778.249405717,
        "Time(s)": 850
    },
    {
        "Altitude(m)": 557011.3324935663,
        "Argument of Periapsis(deg)": 0.02997774923796637,
        "Eccentricity": 0.0,
        "Inclination(deg)": 53.0,
        "Latitude(deg)": 40.3396577347115,
        "Longitude(deg)": 155.92088949429754,
        "Mean Anomaly(deg)": 53.907483505877536,
        "RAAN(deg)": 219.95538577333735,
        "Satellite Name": "Starlink Shell 1 968",
        "Satellite Number": 968,
        "Semi-Major Axis(m)": 6931778.249405717,
        "Time(s)": 860
    },
    {
        "Altitude(m)": 557093.9632185228,
        "Argument of Periapsis(deg)": 0.030326327717477602,
        "Eccentricity": 0.0,
        "Inclination(deg)": 53.0,
        "Latitude(deg)": 40.72498265660029,
        "Longitude(deg)": 156.52978744214585,
        "Mean Anomaly(deg)": 54.5343147094342,
        "RAAN(deg)": 219.9548670032599,
        "Satellite Name": "Starlink Shell 1 968",
        "Satellite Number": 968,
        "Semi-Major Axis(m)": 6931778.249405717,
        "Time(s)": 870
    },
    {
        "Altitude(m)": 557176.2605575708,
        "Argument of Periapsis(deg)": 0.030674906196988847,
        "Eccentricity": 0.0,
        "Inclination(deg)": 53.0,
        "Latitude(deg)": 41.10657760867129,
        "Longitude(deg)": 157.14618421304763,
        "Mean Anomaly(deg)": 55.161145912990946,
        "RAAN(deg)": 219.9543482331824,
        "Satellite Name": "Starlink Shell 1 968",
        "Satellite Number": 968,
        "Semi-Major Axis(m)": 6931778.249405717,
        "Time(s)": 880
    },
    {
        "Altitude(m)": 557258.1715746358,
        "Argument of Periapsis(deg)": 0.031023484676500086,
        "Eccentricity": 0.0,
        "Inclination(deg)": 53.0,
        "Latitude(deg)": 41.484349907162056,
        "Longitude(deg)": 157.77019370000127,
        "Mean Anomaly(deg)": 55.787977116547665,
        "RAAN(deg)": 219.9538294631049,
        "Satellite Name": "Starlink Shell 1 968",
        "Satellite Number": 968,
        "Semi-Major Axis(m)": 6931778.249405717,
        "Time(s)": 890
    },
    {
        "Altitude(m)": 557339.6437402176,
        "Argument of Periapsis(deg)": 0.03137206315601132,
        "Eccentricity": 0.0,
        "Inclination(deg)": 53.0,
        "Latitude(deg)": 41.85820500739186,
        "Longitude(deg)": 158.40192841563223,
        "Mean Anomaly(deg)": 56.414808320104335,
        "RAAN(deg)": 219.95331069302745,
        "Satellite Name": "Starlink Shell 1 968",
        "Satellite Number": 968,
        "Semi-Major Axis(m)": 6931778.249405717,
        "Time(s)": 900
    },
    {
        "Altitude(m)": 557420.6249579088,
        "Argument of Periapsis(deg)": 0.03172064163552255,
        "Eccentricity": 0.0,
        "Inclination(deg)": 53.0,
        "Latitude(deg)": 42.22804650311683,
        "Longitude(deg)": 159.0414981864287,
        "Mean Anomaly(deg)": 57.04163952366108,
        "RAAN(deg)": 219.95279192294996,
        "Satellite Name": "Starlink Shell 1 968",
        "Satellite Number": 968,
        "Semi-Major Axis(m)": 6931778.249405717,
        "Time(s)": 910
    },
    {
        "Altitude(m)": 557501.0635907197,
        "Argument of Periapsis(deg)": 0.0320692201150338,
        "Eccentricity": 0.0,
        "Inclination(deg)": 53.0,
        "Latitude(deg)": 42.59377613014828,
        "Longitude(deg)": 159.68901034188548,
        "Mean Anomaly(deg)": 57.66847072721775,
        "RAAN(deg)": 219.9522731528725,
        "Satellite Name": "Starlink Shell 1 968",
        "Satellite Number": 968,
        "Semi-Major Axis(m)": 6931778.249405717,
        "Time(s)": 920
    },
    {
        "Altitude(m)": 557580.9084870601,
        "Argument of Periapsis(deg)": 0.032417798594545036,
        "Eccentricity": 0.0,
        "Inclination(deg)": 53.0,
        "Latitude(deg)": 42.955293774601365,
        "Longitude(deg)": 160.34456988536323,
        "Mean Anomaly(deg)": 58.29530193077447,
        "RAAN(deg)": 219.95175438279506,
        "Satellite Name": "Starlink Shell 1 968",
        "Satellite Number": 968,
        "Semi-Major Axis(m)": 6931778.249405717,
        "Time(s)": 930
    },
    {
        "Altitude(m)": 557660.109006508,
        "Argument of Periapsis(deg)": 0.03276637707405627,
        "Eccentricity": 0.0,
        "Inclination(deg)": 53.0,
        "Latitude(deg)": 43.31249748615292,
        "Longitude(deg)": 161.0082781335521,
        "Mean Anomaly(deg)": 58.92213313433122,
        "RAAN(deg)": 219.95123561271754,
        "Satellite Name": "Starlink Shell 1 968",
        "Satellite Number": 968,
        "Semi-Major Axis(m)": 6931778.249405717,
        "Time(s)": 940
    }
]